C/2013 F3 (McNaught),e,85.5974,266.0000,18.7995,653.3991,0.0000590,0.99654727,0.0000,05/25.5489/2013,2000,g 12.0,4.0
# From MPC 91612
P/2013 G1 (Kowalski),e,5.4738,221.4416,51.2352,6.881041,0.0546038,0.51359755,104.9634,03/19.0/2019,2000,g 11.0,4.0
# From MPC 84933
C/2013 G2 (McNaught),e,95.9001,273.9026,293.8777,13457,0.0000006,0.99983964,0.0000,12/04.8888/2012,2000,g 11.5,4.0
# From MPC102950
C/2013 G3 (PANSTARRS),h,11/16.3116/2014,64.6575,208.1066,76.5562,1.002508,3.851797,2000,9.0,4.0
# From MPC 84025
P/2013 G4 (PANSTARRS),e,5.9172,339.6855,214.7227,4.437524,0.1054370,0.41029468,234.7507,03/19.0/2019,2000,g 15.0,4.0
# From MPC 84318
C/2013 G5 (Catalina),e,40.7458,144.0173,165.6939,6134,0.0000021,0.99984991,0.0000,09/02.2830/2013,2000,g 14.0,4.0
# From MPC 87478
C/2013 G6 (Lemmon),e,124.1301,44.5492,215.8141,422.8108,0.0001134,0.99514327,0.0000,07/26.3422/2013,2000,g 13.5,4.0
# From MPC 95209
C/2013 G7 (McNaught),e,105.1087,48.3602,218.4368,4025,0.0000039,0.99883558,0.0000,03/20.3446/2014,2000,g  7.5,4.0
# From MPC 95209
C/2013 G8 (PANSTARRS),e,27.6488,240.9760,80.0825,2810,0.0000066,0.99817380,0.0000,11/15.4525/2013,2000,g  8.5,4.0
# From MPC 10027
C/2013 G9 (Tenagra),h,01/16.5844/2015,146.2497,35.7558,205.2130,1.001364,5.346666,2000,7.0,4.0
# From MPC 84933
C/2013 H1 (La Sagra),e,27.0692,84.8010,136.9006,206.1365,0.0003330,0.98710855,0.0000,05/20.1163/2013,2000,g 13.0,4.0
# From MPC 94670
C/2013 H2 (Boattini),e,128.3972,262.6738,36.1376,54997,0.0000001,0.99986337,0.0000,01/25.1013/2014,2000,g  6.5,4.0
# From MPC 91613
P/2013 J2 (McNaught),e,15.5299,289.4185,37.7190,6.225709,0.0634484,0.65660634,128.9929,03/19.0/2019,2000,g 13.0,4.0
# From MPC 87916
C/2013 J3 (McNaught),e,118.2142,200.7930,321.1545,1111,0.0000266,0.99639298,0.0000,02/21.4578/2013,2000,g 10.0,4.0
# From MPC 87066
P/2013 J4 (PANSTARRS),e,5.0352,84.0011,118.7706,2.475100,0.2531133,0.23099371,359.9443,11/04.0/2013,2000,g 14.0,4.0
# From MPC 84319
C/2013 J5 (Boattini),e,136.0357,256.6808,19.2694,1691,0.0000142,0.99708675,0.0000,11/29.2692/2012,2000,g 10.0,4.0
# From MPC 84627
C/2013 J6 (Catalina),e,84.9911,68.2839,125.7704,59.69467,0.0021370,0.95932569,4.6393,03/19.0/2019,2000,g 14.5,4.0
# From MPC 84319
C/2013 K1 (Christensen),e,42.5274,125.6863,171.3509,77.03012,0.0014579,0.98778761,0.0000,05/31.2797/2013,2000,g 18.0,4.0
# From MPC 87916
C/2013 L2 (Catalina),e,106.8176,285.7229,1.8600,4120,0.0000037,0.99881596,0.0000,05/09.2539/2012,2000,g  8.0,4.0
# From MPC 86229
P/2013 N3 (PANSTARRS),e,2.1714,17.5801,323.7819,7.392775,0.0490335,0.59209067,91.2469,03/19.0/2019,2000,g 13.0,4.0
# From MPC 88328
C/2013 N4 (Borisov),e,36.9942,322.7796,142.2713,47.30845,0.0030290,0.97421853,0.0000,08/19.1945/2013,2000,g 12.0,4.0
# From MPC 85834
P/2013 N5 (PANSTARRS),e,23.3707,187.1986,176.8898,6.803966,0.0555342,0.73073865,115.9726,03/19.0/2019,2000,g 17.0,4.0
# From MPC 87479
P/2013 O2 (PANSTARRS),e,13.3220,207.4102,213.6100,3.801838,0.1329577,0.44551072,254.2072,03/19.0/2019,2000,g 14.0,4.0
# From MPC 90767
C/2013 O3 (McNaught),e,102.8392,276.6072,337.9530,671.1566,0.0000567,0.99525132,0.0000,09/08.8105/2013,2000,g 11.5,4.0
# From MPC 85834
P/2013 P1 (PANSTARRS),e,18.7102,160.7072,137.9304,8.560765,0.0393491,0.60596537,86.9690,03/19.0/2019,2000,g 12.0,4.0
# From MPC 93584
C/2013 P2 (PANSTARRS),e,125.6630,2.1252,105.0850,756.6924,0.0000474,0.99623968,0.0000,02/15.2014/2014,2000,g 11.5,4.0
# From MPC111767
C/2013 P3 (Palomar),e,93.8921,177.2376,177.0087,26533,0.0000002,0.99967441,0.0000,11/20.6091/2014,2000,g  5.5,4.0
# From MPC 96865
C/2013 P4 (PANSTARRS),e,4.2721,256.5944,113.2766,14.66752,0.0175456,0.59405346,29.5194,03/19.0/2019,2000,g  7.5,4.0
# From MPC 88696
C/2013 PE67 (Catalina-Spacewatch),e,116.7988,325.9953,59.9825,51.92409,0.0026342,0.96384372,5.0815,03/19.0/2019,2000,g 14.0,4.0
# From MPC102950
C/2013 R1 (Lovejoy),e,63.8532,70.5746,67.3067,466.4437,0.0000978,0.99824774,0.0000,12/21.1171/2013,2000,g  7.0,4.0
# From MPC 94671
P/2013 R3 (Catalina-PANSTARRS),e,0.8653,342.0212,11.1130,3.033264,0.1865687,0.27463034,19.1326,03/19.0/2019,2000,g 14.0,4.0
# From unp
P/2013 R3-A (Catalina-PANSTARRS),e,0.8647,341.9880,11.1520,3.033124,0.1865816,0.27459970,19.1568,03/19.0/2019,2000,g  9.0,4.0
# From MPEC 2015-M77
P/2013 R3-B (Catalina-PANSTARRS),e,0.8659,342.0439,11.0868,3.033340,0.1865617,0.27464542,19.1197,03/19.0/2019,2000,g  9.0,4.0
# From MPC 86230
C/2013 S1 (Catalina),e,83.9638,221.5821,165.8375,1758,0.0000134,0.99840064,0.0000,08/02.3064/2013,2000,g 13.0,4.0
# From MPC 85835
P/2013 T1 (PANSTARRS),e,24.2356,10.1207,346.0598,5.865838,0.0693760,0.62244167,142.8068,03/19.0/2019,2000,g 16.5,4.0
# From MPC 86643
P/2013 T2 (Schwartz),e,9.4565,0.8600,345.3889,3.490632,0.1511290,0.50144364,321.2431,03/19.0/2019,2000,g 16.0,4.0
# From MPC104789
C/2013 TW5 (Spacewatch),e,31.4031,319.7213,190.5041,267.2075,0.0002256,0.97813655,0.0000,08/16.7235/2014,2000,g  7.5,4.0
# From MPC 88696
P/2013 TL117 (Lemmon),e,9.3643,3.3168,112.2611,3.607868,0.1438229,0.68897305,267.0417,03/19.0/2019,2000,g 17.5,4.0
# From MPC 86643
C/2013 U1 (Catalina),e,23.9436,211.2208,142.9939,11.86437,0.0241178,0.79701316,46.9348,03/19.0/2019,2000,g 13.5,4.0
# From MPC104790
C/2013 U2 (Holvorcem),e,43.2376,6.8908,107.9252,506.3095,0.0000865,0.98983660,0.0000,10/26.1789/2014,2000,g  7.5,4.0
# From MPC102951
C/2013 UQ4 (Catalina),e,145.1334,317.8207,23.6720,58.03533,0.0022293,0.98114969,0.0000,07/03.9594/2014,2000,g 13.5,4.0
# From MPC110080
C/2013 US10 (Catalina),h,11/15.9963/2015,148.8425,186.2419,340.5072,1.000540,0.824577,2000,4.4,4.0
# From MPC102951
C/2013 V1 (Boattini),h,04/19.4172/2014,64.9931,72.8159,48.1717,1.001225,1.670634,2000,10.5,4.0
# From MPC 10027
C/2013 V2 (Borisov),h,10/12.3639/2014,37.8343,48.3983,94.5161,1.001168,3.515601,2000,7.0,4.0
# From MPC 88329
C/2013 V3 (Nevski),e,32.0980,101.0070,339.5325,12.59332,0.0220543,0.88954471,43.4254,03/19.0/2019,2000,g 14.0,4.0
# From MPC111767
C/2013 V4 (Catalina),e,67.8597,55.6366,40.4023,14703,0.0000006,0.99964734,0.0000,10/06.5597/2015,2000,g  6.0,4.0
# From MPC102951
C/2013 V5 (Oukaimeden),e,154.8863,278.7698,314.7981,320.9504,0.0001714,0.99803277,0.0000,09/26.5265/2014,2000,g  9.0,4.0
# From MPC 91613
P/2013 W1 (PANSTARRS),e,4.6957,117.8525,1.3323,3.488889,0.1512423,0.59274703,278.1199,03/19.0/2019,2000,g 17.5,4.0
# From MPC109141
C/2013 W2 (PANSTARRS),e,4.8463,178.3560,304.2101,9.668852,0.0327825,0.54620364,51.6745,03/19.0/2019,2000,g 13.5,2.0
# From MPC111767
C/2013 X1 (PANSTARRS),h,04/20.0299/2016,163.1807,131.6354,165.1155,1.000344,1.316276,2000,10.5,2.0
# From MPC 90768
C/2013 Y2 (PANSTARRS),e,29.3947,243.2961,309.1294,240.0134,0.0002651,0.99195870,0.0000,06/13.0816/2014,2000,g 12.0,4.0
# From MPC101095
P/2013 YG46 (Spacewatch),e,7.8582,48.9041,242.4076,3.276925,0.1661515,0.45469095,129.3021,03/19.0/2019,2000,g 10.0,4.0
# From MPC 89728
P/2014 A2 (Hill),e,24.5506,106.6272,356.3523,5.923800,0.0683602,0.64695824,134.8173,03/19.0/2019,2000,g 15.0,4.0
# From MPC 92981
P/2014 A3 (PANSTARRS),e,13.6933,230.4429,212.0862,4.646603,0.0984013,0.24307529,213.1121,03/19.0/2019,2000,g 12.0,4.0
# From MPC108592
C/2014 A4 (SONEAR),e,121.3685,29.7198,356.6487,6236,0.0000020,0.99933048,0.0000,09/04.8495/2015,2000,g  6.0,4.0
# From MPC 93585
C/2014 A5 (PANSTARRS),e,31.9699,310.0724,182.3942,84.31531,0.0012730,0.94300139,2.1423,03/19.0/2019,2000,g 10.0,4.0
# From MPC 96865
C/2014 AA52 (Catalina),h,02/27.4532/2015,105.1515,330.3960,292.1504,1.000221,1.998914,2000,10.0,4.0
# From MPC111767
C/2014 B1 (Schwartz),h,09/10.9661/2017,28.3867,161.3955,345.8698,1.001628,9.557040,2000,4.0,4.0
# From MPC102095
P/2014 C1 (TOTAS),e,2.6808,167.8489,24.1461,3.042927,0.1856807,0.44642255,355.3074,03/19.0/2019,2000,g 15.5,4.0
# From MPC 88697
C/2014 C2 (STEREO),e,135.7195,283.5516,56.2384,710.9902,0.0000520,0.99927661,0.0000,02/18.6522/2014,2000,g 18.0,4.0
# From MPC 90272
C/2014 C3 (NEOWISE),e,151.7785,204.5521,346.1381,109.4862,0.0008603,0.98291675,0.0000,01/16.7390/2014,2000,g 14.0,4.0
# From MPC 91614
P/2014 E1 (Larson),e,15.9802,39.0578,185.9536,3.713561,0.1377267,0.42382061,242.4002,03/19.0/2019,2000,g 14.0,4.0
# From MPC102951
C/2014 E2 (Jacques),e,156.3004,56.6379,344.1321,579.6278,0.0000706,0.99886206,0.0000,07/01.8018/2014,2000,g  7.1,4.4
# From MPC 90769
C/2014 F1 (Hill),e,108.2706,239.8308,8.3941,3456,0.0000049,0.99898428,0.0000,10/04.9235/2013,2000,g 10.5,4.0
# From MPC 97495
C/2014 F2 (Tenagra),e,119.1105,267.4483,86.1584,151.4060,0.0005290,0.97148632,0.0000,01/03.4738/2015,2000,g  9.5,4.0
# From MPC 94280
C/2014 F3 (Sheppard-Trujillo),e,6.4882,327.3342,1.2754,16.32380,0.0149442,0.64956038,348.4302,03/19.0/2019,2000,g  6.0,4.0
# From MPC 90272
C/2014 G1 (PANSTARRS),e,165.6487,337.9532,77.2291,581.5491,0.0000703,0.99056150,0.0000,11/05.1334/2013,2000,g  9.0,4.0
# From MPC101095
C/2014 G3 (PANSTARRS),e,156.0790,4.7422,148.1641,53.74311,0.0025016,0.91239315,3.7653,03/19.0/2019,2000,g  9.0,4.0
# From MPC 88697
C/2014 H1 (Christensen),e,99.9206,34.6919,169.3791,141.5650,0.0005852,0.98481220,0.0000,04/15.2104/2014,2000,g 14.5,4.0
# From MPC105541
C/2014 HU195 (Valdes-TOTAS),e,5.8180,115.7552,145.2648,22.07486,0.0095029,0.76772752,13.2983,03/19.0/2019,2000,g 10.5,4.0
# From MPC109588
C/2014 J1 (Catalina),e,159.7051,41.9697,195.5437,8.755380,0.0380445,0.80446427,65.9075,03/19.0/2019,2000,g 17.0,4.0
# From MPC 93585
P/2014 L2 (NEOWISE),e,5.1904,149.3687,182.6207,6.305308,0.0622507,0.64722813,106.2513,03/19.0/2019,2000,g 12.0,4.0
# From MPC 90769
P/2014 L3 (Hill),e,6.2741,115.4853,178.5672,8.158718,0.0422933,0.77379801,72.8700,03/19.0/2019,2000,g 16.0,4.0
# From MPC 95731
C/2014 L5 (Lemmon),e,122.8165,35.7161,45.5154,7441,0.0000015,0.99916650,0.0000,11/23.9150/2014,2000,g  8.0,4.0
# From MPC103844
C/2014 M1 (PANSTARRS),e,160.2159,234.7540,337.0322,4383,0.0000034,0.99872440,0.0000,08/27.0001/2015,2000,g  9.0,4.0
# From MPC109141
C/2014 M2 (Christensen),e,32.4050,245.2577,40.8086,2012,0.0000109,0.99656413,0.0000,07/19.4487/2014,2000,g  6.0,4.0
# From MPC 90769
